{
    "links": {
        "self": "http://www.neowsapp.com/rest/v1/neo/3797460?api_key=iIulBulltgU6a56xZRHN4H3l9WmuAYTsLGpBGhQ2"
    },
    "id": "3797460",
    "neo_reference_id": "3797460",
    "name": "(2018 AT2)",
    "designation": "2018 AT2",
    "nasa_jpl_url": "http://ssd.jpl.nasa.gov/sbdb.cgi?sstr=3797460",
    "absolute_magnitude_h": 27.7,
    "estimated_diameter": {
        "kilometers": {
            "estimated_diameter_min": 0.0076657557,
            "estimated_diameter_max": 0.0171411509
        },
        "meters": {
            "estimated_diameter_min": 7.6657557353,
            "estimated_diameter_max": 17.1411509231
        },
        "miles": {
            "estimated_diameter_min": 0.0047632783,
            "estimated_diameter_max": 0.0106510141
        },
        "feet": {
            "estimated_diameter_min": 25.1501180466,
            "estimated_diameter_max": 56.2373735944
        }
    },
    "is_potentially_hazardous_asteroid": false,
    "close_approach_data": [
        {
            "close_approach_date": "2018-01-11",
            "close_approach_date_full": "2018-Jan-11 01:10",
            "epoch_date_close_approach": 1515633000000,
            "relative_velocity": {
                "kilometers_per_second": "7.2161620183",
                "kilometers_per_hour": "25978.1832658562",
                "miles_per_hour": "16141.8328187205"
            },
            "miss_distance": {
                "astronomical": "0.0047112431",
                "lunar": "1.8326735659",
                "kilometers": "704791.932812197",
                "miles": "437937.3996224386"
            },
            "orbiting_body": "Earth"
        },
        {
            "close_approach_date": "2018-01-11",
            "close_approach_date_full": "2018-Jan-11 06:49",
            "epoch_date_close_approach": 1515653340000,
            "relative_velocity": {
                "kilometers_per_second": "7.9812875972",
                "kilometers_per_hour": "28732.6353500024",
                "miles_per_hour": "17853.3422262279"
            },
            "miss_distance": {
                "astronomical": "0.0069598839",
                "lunar": "2.7073948371",
                "kilometers": "1041183.806887293",
                "miles": "646961.6175909234"
            },
            "orbiting_body": "Moon"
        }
    ],
    "orbital_data": {
        "orbit_id": "5",
        "orbit_determination_date": "2018-02-27 06:23:34",
        "first_observation_date": "2018-01-12",
        "last_observation_date": "2018-01-20",
        "data_arc_in_days": 8,
        "observations_used": 29,
        "orbit_uncertainty": "7",
        "minimum_orbit_intersection": ".00127718",
        "jupiter_tisserand_invariant": "3.833",
        "epoch_osculation": "2459000.5",
        "eccentricity": ".4791662159510142",
        "semi_major_axis": "1.869374487049919",
        "inclination": "4.060303394465924",
        "ascending_node_longitude": "110.28940937",
        "orbital_period": "933.5614151807686",
        "perihelion_distance": ".9736333878948412",
        "perihelion_argument": "344.4474195717556",
        "aphelion_distance": "2.765115586204997",
        "perihelion_time": "2459051.263768995561",
        "mean_anomaly": "340.4244728399971",
        "mean_motion": ".3856200504283824",
        "equinox": "J2000",
        "orbit_class": {
            "orbit_class_type": "APO",
            "orbit_class_description": "Near-Earth asteroid orbits which cross the Earth’s orbit similar to that of 1862 Apollo",
            "orbit_class_range": "a (semi-major axis) > 1.0 AU; q (perihelion) < 1.017 AU"
        }
    },
    "is_sentry_object": false
}